{"type": "FeatureCollection", "features": [ {"type": "Feature", "properties": {"norad_id": 37867, "name": "COSMOS 2476 (744)", "group": "gnss", "lat": 46.45808062079344, "lon": 108.54746373776496, "alt_km": 19185.7504574282, "timestamp": "2025-12-05T05:43:15.351348+00:00", "meta": {"OBJECT_NAME": "COSMOS 2476 (744)", "OBJECT_ID": "2011-064A", "EPOCH": "2025-12-02T19:57:36.313920", "MEAN_MOTION": 2.13101261, "ECCENTRICITY": 0.00239603, "INCLINATION": 65.1573, "RA_OF_ASC_NODE": 79.5068, "ARG_OF_PERICENTER": 233.4935, "MEAN_ANOMALY": 133.1658, "EPHEMERIS_TYPE": 0, "CLASSIFICATION_TYPE": "U", "NORAD_CAT_ID": 37867, "ELEMENT_SET_NO": 999, "REV_AT_EPOCH": 10958, "BSTAR": 0, "MEAN_MOTION_DOT": -2.2e-07, "MEAN_MOTION_DDOT": 0}, "tle": {"line1": "1 37867U 11064A   25336.83167030 -.00000022  00000+0  00000+0 0  9993", "line2": "2 37867  65.1573  79.5068 0023960 233.4935 133.1658  2.13101261109581"}}, "geometry": {"type": "Point", "coordinates": [108.54746373776496, 46.45808062079344]}}, {"type": "Feature", "properties": {"norad_id": 37868, "name": "COSMOS 2477 (745)", "group": "gnss", "lat": -47.19591511262624, "lon": -70.54651697494135, "alt_km": 19081.89443950609, "timestamp": "2025-12-05T05:43:15.351368+00:00", "meta": {"OBJECT_NAME": "COSMOS 2477 (745)", "OBJECT_ID": "2011-064B", "EPOCH": "2025-12-01T05:34:43.743072", "MEAN_MOTION": 2.1310269, "ECCENTRICITY": 0.00209845, "INCLINATION": 65.1625, "RA_OF_ASC_NODE": 79.6383, "ARG_OF_PERICENTER": 233.8301, "MEAN_ANOMALY": 166.8442, "EPHEMERIS_TYPE": 0, "CLASSIFICATION_TYPE": "U", "NORAD_CAT_ID": 37868, "ELEMENT_SET_NO": 999, "REV_AT_EPOCH": 10954, "BSTAR": 0, "MEAN_MOTION_DOT": -1.2e-07, "MEAN_MOTION_DDOT": 0}, "tle": {"line1": "1 37868U 11064B   25335.23245073 -.00000012  00000+0  00000+0 0  9990", "line2": "2 37868  65.1625  79.6383 0020984 233.8301 166.8442  2.13102690109542"}}, "geometry": {"type": "Point", "coordinates": [-70.54651697494135, -47.19591511262624]}}, {"type": "Feature", "properties": {"norad_id": 37869, "name": "COSMOS 2475 (743)", "group": "gnss", "lat": -8.770621977886343, "lon": -96.38508222777249, "alt_km": 19096.80860631437, "timestamp": "2025-12-05T05:43:15.351381+00:00", "meta": {"OBJECT_NAME": "COSMOS 2475 (743)", "OBJECT_ID": "2011-064C", "EPOCH": "2025-12-02T03:10:18.719904", "MEAN_MOTION": 2.13101359, "ECCENTRICITY": 0.0026048, "INCLINATION": 65.1701, "RA_OF_ASC_NODE": 79.6277, "ARG_OF_PERICENTER": 248.2415, "MEAN_ANOMALY": 78.6584, "EPHEMERIS_TYPE": 0, "CLASSIFICATION_TYPE": "U", "NORAD_CAT_ID": 37869, "ELEMENT_SET_NO": 999, "REV_AT_EPOCH": 10956, "BSTAR": 0, "MEAN_MOTION_DOT": -1.8e-07, "MEAN_MOTION_DDOT": 0}, "tle": {"line1": "1 37869U 11064C   25336.13216111 -.00000018  00000+0  00000+0 0  9998", "line2": "2 37869  65.1701  79.6277 0026048 248.2415  78.6584  2.13101359109563"}}, "geometry": {"type": "Point", "coordinates": [-96.38508222777249, -8.770621977886343]}}, {"type": "Feature", "properties": {"norad_id": 37948, "name": "BEIDOU-2 IGSO-5 (C10)", "group": "gnss", "lat": -14.884317717807026, "lon": -99.89443283682803, "alt_km": 35995.24303921486, "timestamp": "2025-12-05T05:43:15.351394+00:00", "meta": {"OBJECT_NAME": "BEIDOU-2 IGSO-5 (C10)", "OBJECT_ID": "2011-073A", "EPOCH": "2025-12-03T19:19:36.726816", "MEAN_MOTION": 1.00292258, "ECCENTRICITY": 0.01106709, "INCLINATION": 48.0381, "RA_OF_ASC_NODE": 273.9687, "ARG_OF_PERICENTER": 222.1681, "MEAN_ANOMALY": 319.0723, "EPHEMERIS_TYPE": 0, "CLASSIFICATION_TYPE": "U", "NORAD_CAT_ID": 37948, "ELEMENT_SET_NO": 999, "REV_AT_EPOCH": 5117, "BSTAR": 0, "MEAN_MOTION_DOT": -1.77e-06, "MEAN_MOTION_DDOT": 0}, "tle": {"line1": "1 37948U 11073A   25337.80528619 -.00000177  00000+0  00000+0 0  9996", "line2": "2 37948  48.0381 273.9687 0110670 222.1681 319.0723  1.00292258 51174"}}, "geometry": {"type": "Point", "coordinates": [-99.89443283682803, -14.884317717807026]}}, {"type": "Feature", "properties": {"norad_id": 37951, "name": "LUCH 5A (SDCM/PRN 140)", "group": "gnss", "lat": -7.790203845838176, "lon": -33.01948120955492, "alt_km": 35780.321263901904, "timestamp": "2025-12-05T05:43:15.351421+00:00", "meta": {"OBJECT_NAME": "LUCH 5A (SDCM/PRN 140)", "OBJECT_ID": "2011-074B", "EPOCH": "2025-12-04T13:22:38.571168", "MEAN_MOTION": 1.00273444, "ECCENTRICITY": 0.0005921, "INCLINATION": 8.2578, "RA_OF_ASC_NODE": 76.7057, "ARG_OF_PERICENTER": 174.9534, "MEAN_ANOMALY": 189.6181, "EPHEMERIS_TYPE": 0, "CLASSIFICATION_TYPE": "U", "NORAD_CAT_ID": 37951, "ELEMENT_SET_NO": 999, "REV_AT_EPOCH": 5110, "BSTAR": 0, "MEAN_MOTION_DOT": -3.9e-07, "MEAN_MOTION_DDOT": 0}, "tle": {"line1": "1 37951U 11074B   25338.55739087 -.00000039  00000+0  00000+0 0  9994", "line2": "2 37951   8.2578  76.7057 0005921 174.9534 189.6181  1.00273444 51105"}}, "geometry": {"type": "Point", "coordinates": [-33.01948120955492, -7.790203845838176]}}, {"type": "Feature", "properties": {"norad_id": 38091, "name": "BEIDOU-2 G5 (C05)", "group": "gnss", "lat": 1.6149789738053344, "lon": -141.29046141920657, "alt_km": 35774.16669233927, "timestamp": "2025-12-05T05:43:15.351439+00:00", "meta": {"OBJECT_NAME": "BEIDOU-2 G5 (C05)", "OBJECT_ID": "2012-008A", "EPOCH": "2025-12-04T17:25:50.820960", "MEAN_MOTION": 1.00272702, "ECCENTRICITY": 0.0012417, "INCLINATION": 3.088, "RA_OF_ASC_NODE": 70.7318, "ARG_OF_PERICENTER": 225.7173, "MEAN_ANOMALY": 97.5153, "EPHEMERIS_TYPE": 0, "CLASSIFICATION_TYPE": "U", "NORAD_CAT_ID": 38091, "ELEMENT_SET_NO": 999, "REV_AT_EPOCH": 5041, "BSTAR": 0, "MEAN_MOTION_DOT": 6.9e-07, "MEAN_MOTION_DDOT": 0}, "tle": {"line1": "1 38091U 12008A   25338.72628265  .00000069  00000+0  00000+0 0  9994", "line2": "2 38091   3.0880  70.7318 0012417 225.7173  97.5153  1.00272702 50411"}}, "geometry": {"type": "Point", "coordinates": [-141.29046141920657, 1.6149789738053344]}}, {"type": "Feature", "properties": {"norad_id": 38250, "name": "BEIDOU-2 M3 (C11)", "group": "gnss", "lat": -52.323017250218506, "lon": -109.78371623794418, "alt_km": 21467.344730936264, "timestamp": "2025-12-05T05:43:15.351452+00:00", "meta": {"OBJECT_NAME": "BEIDOU-2 M3 (C11)", "OBJECT_ID": "2012-018A", "EPOCH": "2025-12-04T06:32:53.001888", "MEAN_MOTION": 1.86229694, "ECCENTRICITY": 0.0024462, "INCLINATION": 55.9274, "RA_OF_ASC_NODE": 311.4423, "ARG_OF_PERICENTER": 273.73, "MEAN_ANOMALY": 85.9745, "EPHEMERIS_TYPE": 0, "CLASSIFICATION_TYPE": "U", "NORAD_CAT_ID": 38250, "ELEMENT_SET_NO": 999, "REV_AT_EPOCH": 9231, "BSTAR": 0, "MEAN_MOTION_DOT": -6.8e-07, "MEAN_MOTION_DDOT": 0}, "tle": {"line1": "1 38250U 12018A   25338.27283567 -.00000068  00000+0  00000+0 0  9994", "line2": "2 38250  55.9274 311.4423 0024462 273.7300  85.9745  1.86229694 92310"}}, "geometry": {"type": "Point", "coordinates": [-109.78371623794418, -52.323017250218506]}}, {"type": "Feature", "properties": {"norad_id": 38251, "name": "BEIDOU-2 M4 (C12)", "group": "gnss", "lat": -22.162425416681092, "lon": -65.43889350345792, "alt_km": 21506.734948953756, "timestamp": "2025-12-05T05:43:15.351467+00:00", "meta": {"OBJECT_NAME": "BEIDOU-2 M4 (C12)", "OBJECT_ID": "2012-018B", "EPOCH": "2025-12-04T04:55:01.467840", "MEAN_MOTION": 1.86229385, "ECCENTRICITY": 0.0015607, "INCLINATION": 55.8289, "RA_OF_ASC_NODE": 310.6742, "ARG_OF_PERICENTER": 276.8686, "MEAN_ANOMALY": 82.9379, "EPHEMERIS_TYPE": 0, "CLASSIFICATION_TYPE": "U", "NORAD_CAT_ID": 38251, "ELEMENT_SET_NO": 999, "REV_AT_EPOCH": 9231, "BSTAR": 0, "MEAN_MOTION_DOT": -6.8e-07, "MEAN_MOTION_DDOT": 0}, "tle": {"line1": "1 38251U 12018B   25338.20487810 -.00000068  00000+0  00000+0 0  9995", "line2": "2 38251  55.8289 310.6742 0015607 276.8686  82.9379  1.86229385 92310"}}, "geometry": {"type": "Point", "coordinates": [-65.43889350345792, -22.162425416681092]}}, {"type": "Feature", "properties": {"norad_id": 38652, "name": "SES-5 (EGNOS/PRN 136)", "group": "gnss", "lat": -0.04498363762301267, "lon": 165.03871891580062, "alt_km": 35785.57361360025, "timestamp": "2025-12-05T05:43:15.351479+00:00", "meta": {"OBJECT_NAME": "SES-5 (EGNOS/PRN 136)", "OBJECT_ID": "2012-036A", "EPOCH": "2025-12-04T13:44:49.493184", "MEAN_MOTION": 1.00268756, "ECCENTRICITY": 0.0002218, "INCLINATION": 0.0562, "RA_OF_ASC_NODE": 305.395, "ARG_OF_PERICENTER": 301.5042, "MEAN_ANOMALY": 37.9261, "EPHEMERIS_TYPE": 0, "CLASSIFICATION_TYPE": "U", "NORAD_CAT_ID": 38652, "ELEMENT_SET_NO": 999, "REV_AT_EPOCH": 4251, "BSTAR": 0, "MEAN_MOTION_DOT": 4.8e-07, "MEAN_MOTION_DDOT": 0}, "tle": {"line1": "1 38652U 12036A   25338.57279506  .00000048  00000+0  00000+0 0  9998", "line2": "2 38652   0.0562 305.3950 0002218 301.5042  37.9261  1.00268756 42517"}}, "geometry": {"type": "Point", "coordinates": [165.03871891580062, -0.04498363762301267]}}, {"type": "Feature", "properties": {"norad_id": 38775, "name": "BEIDOU-2 M6 (C14)", "group": "gnss", "lat": 11.040600887723125, "lon": -118.1274536596407, "alt_km": 21557.354299219296, "timestamp": "2025-12-05T05:43:15.351491+00:00", "meta": {"OBJECT_NAME": "BEIDOU-2 M6 (C14)", "OBJECT_ID": "2012-050B", "EPOCH": "2025-12-02T20:12:21.766176", "MEAN_MOTION": 1.86230699, "ECCENTRICITY": 0.00108906, "INCLINATION": 56.3701, "RA_OF_ASC_NODE": 69.396, "ARG_OF_PERICENTER": 346.3051, "MEAN_ANOMALY": 13.6678, "EPHEMERIS_TYPE": 0, "CLASSIFICATION_TYPE": "U", "NORAD_CAT_ID": 38775, "ELEMENT_SET_NO": 999, "REV_AT_EPOCH": 8965, "BSTAR": 0, "MEAN_MOTION_DOT": -4.8e-07, "MEAN_MOTION_DDOT": 0}, "tle": {"line1": "1 38775U 12050B   25336.84191859 -.00000048  00000+0  00000+0 0  9993", "line2": "2 38775  56.3701  69.3960 0010890 346.3051  13.6678  1.86230699 89650"}}, "geometry": {"type": "Point", "coordinates": [-118.1274536596407, 11.040600887723125]}}]}